0 FORMOSAT 3D
1 29050U 06011D   13282.15156063  .00000861  00000-0  20262-3 0  5678
2 29050 072.0167 157.6529 0050986 079.5190 281.1700 14.56038528400280
0 FORMOSAT 3D
1 29050U 06011D   13283.18210947  .00000803  00000-0  18976-3 0  5680
2 29050 072.0166 155.4592 0051017 077.5760 283.1094 14.56039423400432
0 FORMOSAT 3D
1 29050U 06011D   13285.79282687  .00000737  00000-0  17501-3 0  5701
2 29050 072.0160 149.9015 0051056 072.6668 288.0059 14.56042242400810
0 FORMOSAT 3D
1 29050U 06011D   13286.82337082  .00000830  00000-0  19575-3 0  5714
2 29050 072.0159 147.7077 0051103 070.7376 289.9293 14.56043744400964
0 FORMOSAT 3D
1 29050U 06011D   13288.06002285  .00001174  00000-0  27248-3 0  5725
2 29050 072.0157 145.0751 0051156 068.4425 292.2167 14.56048063401146
0 FORMOSAT 3D
1 29050U 06011D   13289.09056354  .00000932  00000-0  21851-3 0  5731
2 29050 072.0155 142.8812 0051182 066.5086 294.1431 14.56050739401292
0 FORMOSAT 3D
1 29050U 06011D   13290.12110217  .00000903  00000-0  21205-3 0  5748
2 29050 072.0156 140.6873 0051237 064.5953 296.0489 14.56052087401447
0 FORMOSAT 3D
1 29050U 06011D   13291.15163929  .00000822  00000-0  19388-3 0  5750
2 29050 072.0156 138.4934 0051283 062.6703 297.9655 14.56053662401594
0 FORMOSAT 3D
1 29050U 06011D   13292.73179290  .00000900  00000-0  21134-3 0  5763
2 29050 072.0157 135.1293 0051309 059.7016 300.9196 14.56055877401821
0 FORMOSAT 3D
1 29050U 06011D   13293.76232608  .00000973  00000-0  22763-3 0  5770
2 29050 072.0158 132.9354 0051351 057.7781 302.8333 14.56058054401979
0 FORMOSAT 3D
1 29050U 06011D   13294.99896440  .00001023  00000-0  23862-3 0  5785
2 29050 072.0158 130.3027 0051416 055.4817 305.1173 14.56060307402158
0 FORMOSAT 3D
1 29050U 06011D   13296.02949501  .00001039  00000-0  24229-3 0  5794
2 29050 072.0158 128.1088 0051460 053.5692 307.0187 14.56062950402308
